<?xml version="1.0" encoding="UTF-8"?>
<kml xmlns="http://www.opengis.net/kml/2.2" xmlns:gx="http://www.google.com/kml/ext/2.2">
    <Document id="1">
        <Placemark id="3">
            <name>Artemis II Path</name>
            <LineString id="2">
                <altitudeMode>absolute</altitudeMode>
                <coordinates>-146.2614740377467,18.628637208737224,121880.81009116929 -146.18133485869947,18.682978107964157,120759.53180425726 -146.10111293421303,18.737299650643543,119647.26195163929 -146.02080808778052,18.79160173904591,118544.06875036877 -145.94042047451507,18.845883834966514,117449.90898892289 -145.859950136947,18.900145562267717,116364.7744364939 -145.7793969528064,18.95438656772311,115288.69355357533 -145.69876095298363,19.00860652767666,114221.66969274894 -145.6180421971779,19.0628051118633,113163.70053751186 -145.53724072623655,19.11698199140825,112114.78800883624 -145.4563565798859,19.171136832836957,111074.93469766929 -145.37538976687742,19.22526928809038,110044.14751374636 -145.29434035329245,19.279379030683057,109022.4276808105 -145.21320836485273,19.333465716422193,108009.78161479306 -145.1319938365965,19.387528997734695,107006.21584805122 -145.0506967752129,19.441568521098944,106011.74253315877 -144.96931725122673,19.49558393102286,105026.36424439072 -144.88785531958558,19.549574865415185,104050.08719378588 -144.80631101045026,19.603540973492375,103082.91874572237 -144.72468437632904,19.657481890739916,102124.86676682784 -144.64297551451438,19.71139722074292,101175.93965635703 -144.5611844945571,19.765286577526272,100236.14599976806 -144.47931144105635,19.819149535733217,99305.49441189697 -144.39735646727016,19.872985675473437,98383.99412280886 -144.31531970548508,19.926794578770345,97471.65783330132 -144.2332013530045,19.980575775747667,96568.49770342882 -144.1510016124618,20.034328792183732,95674.5269223951 -144.0687207055798,20.088053139232713,94789.7601200479 -143.986358891131,20.141748305459554,93914.21371862364 -143.90391646511478,20.195413754616073,93047.90606432689 -143.8213937697923,20.24904892578039,92190.85748955751 -143.73879119577393,20.302653230936688,91343.09045564153 -143.65610919049476,20.356226050036057,90504.62945227053 -143.57334827123765,20.409766724100525,89675.50090602947 -143.49050903611192,20.46327454267256,88855.73322636612 -143.40759218333733,20.51674872493852,88045.35665200831 -143.32459851851286,20.570188406740336,87244.40245977463 -143.24152895594673,20.62359262502746,86452.90289106697 -143.15838451372366,20.676960303213196,85670.8918372113 -143.0751663044089,20.730290250680877,84898.4063863684 -142.99187551538728,20.78358117915738,84135.49038140169 -142.90851340911271,20.836831738601774,83382.19857024458 -142.8250813532517,20.890040553081604,82638.59966949272 -142.74158089780045,20.943206240422832,81904.77583618564 -142.65801387359355,20.996327376604203,81180.8176488476 -142.57438249454339,21.049402389696667,80466.814986758 -142.4906893788117,21.102429403872392,79762.84844177806 -142.4069373679553,21.155406159157,79068.98818220315 -142.3231292117467,21.20833010469383,78385.3092309554 -142.23926750331267,21.26119862908354,77711.91993661289 -142.15535495934054,21.314009338775318,77048.97032122329 -142.07139499100927,21.36676001799776,76396.62450668564 -141.98739201861636,21.419448145373988,75755.01818157599 -141.9033509347367,21.472070382547646,75124.25019221967 -141.81927605727273,21.52462271635408,74504.44185622035 -141.7351710556049,21.577101445787864,73895.79221650626 -141.65104059186325,21.629503607337725,73298.53052965215 -141.5668912701127,21.681825963535278,72712.81594656348 -141.4827295956182,21.73406392978385,72138.76237575818 -141.3985601476845,21.786212438627143,71576.5840144836 -141.31438828658628,21.83826759414753,71026.56368384173 -141.2302226396474,21.890225678567266,70488.8765466632 -141.14607088246922,21.942081206578344,69963.66750834517 -141.06193774988424,21.993828404502697,69451.2365471168 -140.97783150042343,22.04546317727871,68951.8430431585 -140.89376251012598,22.0969805882648,68465.60936591578 -140.80973588003988,22.1483737791389,67992.8271478216 -140.72575967803579,22.199637604556116,67533.76191537992 -140.64184582523282,22.25076732232057,67088.53805618394 -140.55799911253226,22.30175563391223,66657.48417636743 -140.47422930161875,22.352596964898048,66240.78727083723 -140.39054787309274,22.40328629901179,65838.61064830498 -140.30695901812356,22.45381624662709,65451.31073553364 -140.22347594236794,22.504181706633112,65078.93870315891 -140.14010555157486,22.55437687199881,64721.812069616135 -140.05685613481634,22.604394538216226,64380.06409168309 -139.97373955637556,22.654230855265993,64053.86202606639 -139.89076034234475,22.703878063553386,63743.440375745646 -139.8079315440959,22.753331834151894,63448.81560165323 -139.72525731240202,22.80258636899401,63170.29655698656 -139.64274906683494,22.85163588700326,62907.78847935694 -139.5604119944246,22.90047686227121,62661.608123233505 -139.47825511959547,22.949102567206406,62431.595686658286 -139.39628433508676,22.997511171500175,62218.03509010239 -139.31450666497366,23.045695897001295,62020.725351110115 -139.23292784744206,23.093655981513372,61839.90495096136 -139.15155195544497,23.141383955446038,61675.33810572819 -139.07038083632983,23.188874853810297,61526.99772041288 -138.98941348718424,23.236114750724482,61393.96802548597 -138.90864415404135,23.28308939599299,61274.975577186226 -138.82807021587007,23.32978577581117,61168.08263881018 -138.74768927165167,23.37619701036492,61071.94437759859 -138.667503351187,23.422318584432226,60984.920014898526 -138.5875116239477,23.468148422563495,60906.20994796268 -138.507717517958,23.513685549160588,60834.647315636845 -138.4281201090201,23.5589294345315,60769.71785790271 -138.34872352376937,23.603880677840397,60710.617719439695 -138.26952571505743,23.648539309643933,60656.986088198326 -138.19053076029388,23.69290658681744,60608.26274174711 -138.11173643429984,23.736983082904473,60564.18838290484 -138.03314674894196,23.78077047465001,60524.40381457853 -137.95475842157288,23.824269448517075,60488.65586247647 -137.87657524025383,23.867481786678383,60456.69503315429 -137.79859396058706,23.91040859465225,60428.31906849394 -137.72081816345073,23.95305180997172,60403.4547166757 -137.64324374831673,23.995412625276938,60381.823024567595 -137.56587405515586,24.03749305477832,60363.40448928682 -137.48870528318278,24.079294635453778,60347.92514101128 -137.41174057143527,24.120819453964895,60335.46411493572 -137.334975731074,24.162069242557948,60325.69005379903 -137.2584134210127,24.203046065974462,60318.79479965724 -137.1820491175743,24.243751812362245,60314.356402427926 -137.10588545557712,24.284188603379025,60312.59739124786 -137.02991814657236,24.324358611331423,60313.07134006763 -136.95414967022566,24.364264028410325,60316.09151881103 -136.87857543376546,24.40390709074936,60321.167696118144 -136.80319770764953,24.443290008346917,60328.58777872588 -136.72801152167833,24.482414983467862,60337.90404720902 -136.65301892628054,24.521284323591594,60349.455392568765 -136.57821546108565,24.559900297307074,60362.888677776085 -136.50360302352004,24.598265457755172,60378.36482961882 -136.42917683461283,24.636381777060443,60395.701195443115 -136.35493810448583,24.67425204147267,60414.87862807487 -136.28088314172075,24.711878198197926,60435.93058562412 -136.20701235055733,24.74926320786145,60458.62588768946 -136.13332287485278,24.78640897455057,60483.21975878353 -136.05981359000464,24.823318393387357,60509.301818366446 -135.9864831049534,24.85999348449946,60537.21409809026 -135.91332814913304,24.89643682513044,60566.53011857745 -135.84034950283097,24.932650960221192,60597.51251561476 -135.7675423135899,24.968638038092312,60629.92402512129 -135.694908582188,25.004401007887413,60663.76495910694 -135.6224424945704,25.039941603483197,60699.1343309146 -135.55014620542917,25.075263114154694,60735.69136826693 -135.47801460522376,25.11036716371943,60773.75680118404 -135.40604838421467,25.145256825999592,60812.94951280145 -135.33424482526374,25.179934138658776,60853.501083047595 -135.26260132149113,25.21440148234442,60895.255135262705 -135.19111769299298,25.248661383818764,60937.97279821087 -135.119788812472,25.282715841056316,60981.2859748218 -135.04861837818112,25.316569820932596,61024.070037563375 -134.97760430995268,25.350230640124202,61064.870247636674 -134.90675314378396,25.383711190041595,61102.178541514855 -134.83606848871972,25.41702350231165,61135.03706778568 -134.7655547036336,25.450182980859413,61162.77657608645 -134.69522129950536,25.483206315808122,61185.40995784996 -134.62507045552016,25.516106445078037,61203.019601619395 -134.5551100923262,25.548897765464904,61216.64906512607 -134.48534351935152,25.58159116869938,61227.21447598197 -134.41577202344112,25.614193570091118,61235.7515395456 -134.3463974887926,25.646709192324995,61243.595786826554 -134.27721828530633,25.67914114456811,61251.249900715804 -134.20823405020752,25.711489060855012,61259.42264713646 -134.13944294663534,25.743754362319102,61268.53497297539 -134.0708435037494,25.775937433104176,61278.69461879332 -134.002434438156,25.80803747166006,61290.49180949647 -133.93421352398926,25.84005635156824,61303.845505052705 -133.86617983463495,25.871992763450987,61318.86839022414 -133.79833107204612,25.90384756034213,61335.861374093445 -133.73066583973952,25.935621634342787,61354.52300818004 -133.66318278743051,25.967313803335724,61375.10745874452 -133.59587932928798,25.998926112906847,61397.59983655883 -133.52875480745502,26.030458029642283,61421.68569703489 -133.4618068236221,26.06190985539311,61447.68463827852 -133.39503350301774,26.093283154144494,61475.35440243331 -133.32843406875145,26.12457686603477,61504.55407297434 -133.2620053789779,26.15579264884704,61535.55765930709 -133.19574653526672,26.186930761512524,61567.963515403026 -133.12965583570454,26.21799100336912,61601.82499259132 -133.06373031762402,26.248975196939988,61637.27448628018 -132.99796962331828,26.27988265312699,61673.88214131627 -132.93237111968338,26.310714412957903,61711.8239218403 -132.86693248561605,26.341471566282625,61751.09045135161 -132.80165333810652,26.37215336019341,61791.26768970318 -132.73653032967943,26.402761754650683,61832.6202377944 -132.6715620422569,26.43329668063059,61875.02240255105 -132.60674761459506,26.463757956698892,61918.15361969867 -132.5420834775047,26.494147838951616,61962.30503813913 -132.4775688958101,26.524465284001497,62007.26795705695 -132.4132024327866,26.55471107358811,62052.76788447765 -132.34898058322824,26.584887215342405,62099.12146604367 -132.28490307559503,26.614992008578753,62146.08033056731 -132.22096794638233,26.64502718018623,62193.391073851446 -132.1571719615525,26.674994342677703,62241.35221451839 -132.09351511136057,26.704891332567694,62289.74266410335 -132.02999509042036,26.734720556856875,62338.3354098142 -131.96660893546903,26.76448330229079,62387.39976877113 -131.903356736624,26.794177082553325,62436.75029117423 -131.84023604930687,26.82380483239488,62486.123502704475 -131.7772440599096,26.853367759927377,62535.78179421244 -131.7143808130943,26.882863192739194,62585.62878340287 -131.65164405358567,26.91229402748343,62635.33276157852 -131.58903109191766,26.941661551324902,62685.08310065001 -131.52654195130532,26.970962833680566,62734.897064116856 -131.46417453070427,27.00020054944901,62784.45959606633 -131.40192625371373,27.029376523745494,62833.84643197995 -131.33979690617412,27.05848785271797,62883.18325851142 -131.2777847930464,27.087536520246392,62932.17757593028 -131.21588720749676,27.116525236350462,62980.7634752109 -131.15410392110377,27.145450952658816,63029.14614238427 -131.09243365188428,27.17431446199226,63077.14099774468 -131.03087369603884,27.203119327745227,63124.517343956024 -130.96942350474907,27.231863380824198,63171.4574792612 -130.90808232086036,27.26054582566533,63217.962320811544 -130.84684747766138,27.28917056142617,63263.75018416126 -130.78571810070224,27.31773688746003,63308.84937816032 -130.72469384047855,27.346242524547655,63353.42674326911 -130.66377244129052,27.374690621836113,63397.24996773325 -130.60295243226435,27.403082408927393,63440.12893323058 -130.54223388405413,27.431414921295094,63482.27349582713 -130.48161499679617,27.4596896592689,63523.67869748802 -130.42109368583786,27.487909659471857,63564.03955440593 -130.3606701075734,27.51607278166153,63603.3732819293 -130.30034334675062,27.5441781836716,63641.872572972214 -130.24011110886636,27.572229170189814,63679.33206596513 -130.17997287165502,27.600225659462257,63715.514786586915 -130.11992871002894,27.628165214709064,63750.61545835652 -130.05997651794337,27.65604993547059,63784.71613225411 -130.00011479411958,27.68388201527159,63817.51312400484 -129.94034412157575,27.711659101302832,63848.92150154751 -129.88066351939452,27.739380837740736,63879.18833447321 -129.82107063273045,27.767050354791756,63908.269522524875 -129.76156538145855,27.79466740404421,63935.86630214081 -129.70214807701498,27.822229805148556,63962.05407296309 -129.6428167696865,27.849739191294862,63987.06812602609 -129.5835700437286,27.877197482581998,64010.71392946108 -129.52440866344398,27.90460286741421,64032.76088587753 -129.46533208881627,27.931954714116127,64053.3914207826 -129.4063380771241,27.959255608797353,64072.749505397405 -129.34742642299335,27.98650575287928,64090.569421379725 -129.288597971418,28.01370302583171,64106.70208274344 -129.22985125695533,28.040848455717853,64121.41023230748 -129.17118442099462,28.067944271988946,64134.75446033152 -129.1125982942303,28.094989295597376,64146.41095879661 -129.05409315762407,28.121982257969243,64156.32120420646 -128.99566707931663,28.148925058907178,64164.773602141126 -128.93731915838381,28.175818662031794,64171.74884657367 -128.87905060583927,28.202661241768336,64176.93551145278 -128.8208610957212,28.229452770728575,64180.35659947619 -128.76274851363354,28.256195488587483,64182.29402769979 -128.70471289330783,28.28288915552893,64182.6581531037 -128.64675548225998,28.30953206779301,64181.13290861189 -128.58887529282674,28.33612526749828,64177.811650996155 -128.5310706550054,28.362670398506708,64172.94770059433 -128.47334233746685,28.389166182957606,64166.41643434104 -128.41569130064855,28.41561151527643,64157.953189700405 -128.3581161570407,28.442008317314954,64147.68349525834 -128.30061567295925,28.46835752412667,64135.8349884161 -128.24319118272402,28.494657248025664,64122.241665987334 -128.1858432228545,28.520907289822432,64106.65568568837 -128.12857019285528,28.547109790749055,64089.23930738502 -128.07137166085838,28.573264619613948,64070.178254618644 -128.0142491487246,28.599369674397376,64049.30465574354 -127.95720272507,28.625425746173594,64026.427905607685 -127.90023081933322,28.651435093472113,64001.709002932526 -127.8433336447298,28.677396652558066,63975.3104785292 -127.78651271907313,28.703308531459545,63947.04400406154 -127.72976775272204,28.72917240398839,63916.71166851687 -127.673097565527,28.75498994801271,63884.458845446876 -127.61650293498411,28.780759218813483,63850.43349133663 -127.55998522373997,28.806478913974065,63814.44401537283 -127.50354374549107,28.83215155006801,63776.30926749371 -127.44717770713171,28.85777822220101,63736.182416802796 -127.39088858008532,28.88335692002271,63694.20100310696 -127.3346771425885,28.908886492583584,63650.268396653286 -127.27854224592787,28.93436896623806,63604.47016962122 -127.22248321591354,28.959803649959404,63557.1694094084 -127.16650129445495,28.985187203059255,63508.517229036785 -127.1105970856519,29.010520058607206,63458.41050841012 -127.05476953906054,29.035804875232245,63406.87561704948 -126.99901877696786,29.061039980407436,63354.1043462054 -126.94334626439365,29.086222439622205,63300.13025024227 -126.88775222840908,29.111354057225107,63244.84398827828 -126.8322361396826,29.13643712392826,63188.21900146297 -126.77679900833166,29.16146905489542,63130.35976939333 -126.72144197521928,29.186447777422078,63071.28719979329 -126.66616490226949,29.211376337508252,63010.883444233055 -126.61096798999338,29.2362560155858,62949.08539369823 -126.55585263301205,29.261083625321458,62885.97931278961 -126.50081948561919,29.285858605122176,62821.59734409531 -126.44586817823765,29.310584246456497,62755.844307101244 -126.39099972475654,29.33526025281385,62688.6539437038 -126.3362157147966,29.3598833124845,62620.11157997395 -126.28151605286496,29.38445455638562,62550.25010159261 -126.22690091402626,29.408976938096835,62478.90702307994 -126.17237212449362,29.433448685810447,62406.01260334283 -126.11793060240103,29.45786745357894,62331.712700970245 -126.06357593459782,29.482235813392343,62256.003684792166 -126.00930922704299,29.506555369602196,62178.65728671353 -125.95513265183081,29.53082312588934,62099.65872657262 -125.90104627219361,29.55503863523609,62019.189693113316 -125.8470499710163,29.579204814072412,61937.16300117049 -125.79314596357449,29.60332112413965,61853.34675852635 -125.73933577792505,29.627385032487883,61767.84712466754 -125.68561872666464,29.651398084701817,61680.82946016725 -125.63199593874691,29.675362108150097,61592.05789295749 -125.57847026215285,29.699274845628153,61501.35684848199 -125.52504184279121,29.723135497664,61408.98484585465 -125.47171017248863,29.746946604673614,61314.979907584806 -125.41847812612224,29.770707504964907,61219.01440763236 -125.36534772169884,29.794416027669527,61121.11116679909 -125.3123179546325,29.818073597810915,61021.56411777929 -125.25939030350037,29.841681142200667,60920.19386124571 -125.20656800425215,29.86523677682626,60816.74454370207 -125.15385099121775,29.888740464480392,60711.50290557822 -125.10123906339436,29.912193690837427,60604.586952562815 -125.04873582918151,29.93559503587337,60495.64089232139 -124.99634290061604,29.95894371010593,60384.690193751994 -124.94405932102137,29.98224119846425,60272.05901747355 -124.89188779293974,30.005486727375263,60157.53864032541 -124.8398313749681,30.028679138907513,60040.8910609035 -124.78788928073197,30.05181972559473,59922.46398264924 -124.73606286516596,30.07490805334986,59802.30105400039 -124.68435620152846,30.097942343923584,59680.03850341762 -124.63276940333836,30.120923979793826,59555.8457178012 -124.58130283605516,30.14385299397927,59429.96950487336 -124.529960592739,30.166727382093168,59302.09485590238 -124.47874385597777,30.18954825027506,59172.20614658887 -124.42765221845855,30.212315980406053,59040.68967597928 -124.37668960528083,30.235028029955075,58907.35763193421 -124.32585819255101,30.257685448510237,58772.013617652716 -124.2751574564108,30.280288987948214,58635.04186243838 -124.22459095695237,30.302835490183092,58496.413645679364 -124.17416147707291,30.32532586756552,58355.8648173128 -124.1238687495833,30.34776139711318,58213.701812499006 -124.07371584042212,30.37013868126203,58070.02971943724 -124.02370560848189,30.392458996047424,57924.6413433875 -123.97383728141156,30.41472239801495,57778.09712430758 -123.92411217786068,30.43692213687535,57630.9122721172 -123.87452922281639,30.459051013275406,57483.607360946306 -123.82508158326573,30.481099435856795,57336.973767140764 -123.77576681236704,30.503054852731374,57191.08491601203 -123.72658290738218,30.524908291646454,57045.82943840358 -123.67752333770238,30.54665055172324,56901.00901389344 -123.62858860438712,30.56827357653093,56755.96926736299 -123.57978011839612,30.589774289460024,56610.46551033282 -123.53109469030872,30.611148916073024,56464.26522738778 -123.48253622529762,30.63239375401917,56316.78624751423 -123.43410617614992,30.653507716093657,56168.051966820625 -123.38580306201271,30.6744882941739,56017.86804921074 -123.33763226928261,30.695333274369233,55865.76752160519 -123.2895938851733,30.71604214483277,55712.01104198041 -123.24168820022018,30.736612891004484,55556.40356649887 -123.19392095844688,30.75704402032948,55398.64415678979 -123.14629105237213,30.777335035541228,55239.086331465005 -123.09880165972814,30.79748416984864,55077.45626723108 -123.05145706124804,30.81749022008195,54913.63672877326 -123.00425588671399,30.837352612165127,54748.015678432144 -122.95720376199071,30.85706960129889,54580.230778763 -122.91030218635808,30.87664029769447,54410.45375593129 -122.8635518083579,30.896064206506757,54238.99880272954 -122.81695898748444,30.91533962725174,54065.52954431894 -122.7705230701203,30.934466227957564,53890.47928199066 -122.72424874660362,30.95344344232251,53713.91713470692 -122.67813968014283,30.972269414756457,53535.66809847509 -122.63219578871934,30.990944546380618,53356.289041632896 -122.58642399718775,31.009467592717982,53175.59361866204 -122.5408240016375,31.02783730714392,52993.76360741698 -122.4954000573293,31.046054739618192,52811.23487390224 -122.45015673472338,31.064117621540436,52627.743092001634 -122.40509387109446,31.082026221325574,52443.74145990251 -122.36021908038143,31.09978068645737,52259.28940754511 -122.3155318131403,31.11737869310635,52074.36525592457 -122.27103709928264,31.134821999387462,51889.401389845494 -122.22673897249052,31.152108906489104,51704.3057683806 -122.18263742065997,31.169239161236714,51519.36543113891 -122.13874063944655,31.186213984643782,51334.73197147984 -122.095046735665,31.203030517621734,51150.36908478404 -122.05156236823399,31.21969056597129,50966.53906918412 -122.00828934204242,31.236192669192736,50783.27404622114 -121.96522915448412,31.25253601279765,50600.66070027489 -121.9223883795716,31.268721689981202,50418.83380616549 -121.87976467342546,31.284746552223147,50237.719327202074 -121.83736592311399,31.300612218336177,50057.426979526696 -121.79519057963378,31.316316715248192,49878.01598092163 -121.75324393157845,31.33185958143231,49699.432253038816 -121.7115284439777,31.3472412401101,49521.894869646676 -121.670045099389,31.36245874772971,49345.21611347832 -121.62879996979925,31.377513900658744,49169.6148952947 -121.58779132862557,31.392403774084197,48995.013552758 -121.54702607120026,31.407128498759807,48821.330475622824 -121.50650261242541,31.421687310538076,48648.760859094116 -121.4662264642003,31.436078368241425,48476.99594604236 -121.42619782303018,31.45030275063226,48306.37255378287 -121.38641966011568,31.46435756264202,48136.52370591973 -121.34689443460536,31.47824405766482,47967.68170138039 -121.3076229780306,31.491960408891305,47799.70029882582 -121.26860960029555,31.50550650599089,47632.5106161293 -121.22985336322702,31.51888240327496,47466.298026655415 -121.19135905690044,31.53208614638491,47300.67562409002 -121.15312523697216,31.54511882717755,47136.0029665452 -121.1151561527752,31.557978067597592,46971.77797931014 -121.07745063331515,31.570664729911257,46808.293084306286 -121.04001306760458,31.583177664483813,46645.2164491283 -121.00284235932105,31.595516250614985,46482.57964307473 -120.96594136052627,31.607680977390235,46320.36732121609 -120.92931075498188,31.619669998639623,46158.30341369664 -120.8929514162568,31.631484339033932,45996.51342564942 -120.85686577202566,31.643121582955022,45834.47909477015 -120.82105252066694,31.654582556297726,45672.42291800484 -120.78551570068944,31.665865896053536,45509.868363469606 -120.75025216380891,31.6769710079884,45346.874448229675 -120.7152672878712,31.687898445825905,45183.207873580715 -120.68055741883867,31.698646054806947,45018.608250768724 -120.64612820383141,31.709215866311876,44853.120704127214 -120.61197639991627,31.71960488684659,44686.31696828873 -120.57810656108478,31.72981489542269,44518.34493620198 -120.54451797678581,31.739843993099665,44348.827537879835 -120.51121315050474,31.749693137742373,44177.85716896514 -120.47819369907407,31.759362251442877,44005.33140992213 -120.44545987897959,31.768851027555105,43831.183651398766 -120.41301558181866,31.778161484146548,43655.65629367312 -120.38085934496999,31.787292463678167,43478.58488939501 -120.34899661026896,31.796247395009257,43300.4155362726 -120.3174249618923,31.805025013750107,43121.02144625713 -120.28615064866165,31.813628593729707,42940.72087870369 -120.25517034412343,31.82205740929124,42759.594110424594 -120.22449006875834,31.830313772375334,42577.7041570313 -120.19410763205039,31.83839859049787,42395.381952469994 -120.16402773123178,31.846312777416124,42212.4655823134 -120.13424929423655,31.854058626845454,42029.437561963015 -120.10477552285428,31.861636246288253,41846.04446694181 -120.07560661885461,31.869048743627555,41662.777611194135 -120.04674366498222,31.87629587087834,41479.4410678929 -120.01818837327775,31.883380083250945,41296.269892184886 -119.98994003679147,31.890301670074432,41113.248134198286 -119.96200156658341,31.897061549882245,40930.25917385858 -119.93437047636374,31.903660934292265,40747.527841086514 -119.90705043029277,31.910099807818128,40564.74682418614 -119.88003891873205,31.91638456849139,40382.93448578599 -119.8533432197932,31.92252497258963,40202.79917786348 -119.82696472292585,31.92854012904428,40025.800242194644 -119.80091321770058,31.93445432774372,39852.681162498106 -119.77519198451034,31.940289037995004,39683.7336167433 -119.74980915480651,31.946067479422123,39518.38535081018 -119.72476844896946,31.951804117151553,39355.94743964015 -119.7000725171176,31.95751136841342,39195.46349132794 -119.67572488760749,31.963197269184654,39035.895875977854 -119.65172398360994,31.96886789785378,38876.62386211406 -119.62807357395596,31.97452744650804,38716.43340745974 -119.60477002818988,31.98017945562494,38555.059327984 -119.58181647397831,31.9858244990898,38391.439917430704 -119.55920897062643,31.99146545442444,38225.40843143677 -119.53694937046674,31.997100651742805,38056.32173387513 -119.5150348542428,32.00273242330321,37883.83248946849 -119.49346512511872,32.008358552233474,37707.90254577119 -119.47223963222777,32.013979651256356,37527.93591042413 -119.45135593342596,32.0195950985261,37344.252933749696 -119.43081524438787,32.02520305876452,37156.3529045338 -119.41061366113229,32.030804993800345,36964.543337457624 -119.39075317742993,32.036396683992365,36768.795752693455 -119.37123034875651,32.041980767502146,36568.956192010366 -119.3520463620998,32.04755230336347,36365.533778197634 -119.33319927426663,32.05311322839199,36158.176850074604 -119.31468867239244,32.05866060211019,35947.41782408573 -119.29651465108063,32.06419369452479,35733.156174934855 -119.27867594298041,32.06971282437491,35515.490126076154 -119.26117368281069,32.0752136242944,35294.913778174654 -119.2440055894059,32.080698502698965,35071.27985006922 -119.2271729751275,32.0861618583133,34845.251971366044 -119.21067354371323,32.09160590673654,34616.74650374194 -119.19450826430867,32.09702632035653,34386.1075290901 -119.1786751506128,32.10242265879133,34153.69750852471 -119.1631740744267,32.10779403733344,33919.43161344202 -119.148003877869,32.11313661474707,33683.97828159832 -119.13316264409943,32.11845218260991,33447.15578231575 -119.11865105427756,32.12373515758361,33209.39349549939 -119.10446517205105,32.128987328143786,32970.91575327365 -119.09060608649489,32.134204724972804,32731.73292900447 -119.0770694389474,32.13938667386917,32492.40545496354 -119.063855080325,32.14453195585525,32252.724150273574 -119.05096044227187,32.1496370780455,32013.17325643653 -119.03838098845782,32.15470304031301,31774.026009534922 -119.0261147887158,32.15972328062852,31535.92559610657 -119.01415025704969,32.16469261944897,31300.26742274436 -119.00247552006891,32.169593426034865,31068.563439512065 -118.99107406198132,32.17440931576862,30841.94902479411 -118.97993125613377,32.179122324126254,30620.78726238756 -118.96903366168286,32.18371295099261,30404.80251764095 -118.95836852426544,32.18817067135594,30193.554801745933 -118.94793081452772,32.192483869928886,29985.95526904567 -118.93771037909477,32.19664658041599,29781.26738785207 -118.92770434508648,32.20065492453252,29578.54128996363 -118.91790815040284,32.204504961386384,29376.697529811016 -118.90831600853298,32.208197242489355,29175.222722648283 -118.89892909229735,32.211731716798106,28973.177524798004 -118.88974139313788,32.215109408138325,28770.007784531543 -118.88075198625936,32.21833344071474,28565.434261806713 -118.87196104839256,32.22140554940078,28358.703300506913 -118.86336270488098,32.22432852067285,28149.686483549845 -118.85495900876415,32.22710632692131,27938.304924832013 -118.8467488553784,32.22974120961635,27724.070915171844 -118.83872795680654,32.23223627995022,27507.143451646945 -118.83089903403632,32.234595919496655,27287.585778230306 -118.8232590812919,32.23682255424897,27065.1606038898 -118.81580446992947,32.23891976846744,26840.244348859535 -118.80853697931212,32.24089201694557,26613.043373286462 -118.8014532708024,32.242741780368405,26383.441644173243 -118.79454993396538,32.24447278309945,26151.903400853003 -118.78782802453378,32.24608932788719,25918.71072627339 -118.78128444909609,32.24759354471609,25683.7557100583 -118.77491542151029,32.248988930638724,25447.478120464126 -118.76872154242207,32.25028014106747,25210.23591130299 -118.76270012159787,32.25146937152656,24971.950852228696 -118.7568465272087,32.25255982811897,24732.99514753302 -118.751159369232,32.253556464654764,24493.88482778501 -118.74563510755834,32.25446379815435,24255.163327551672 -118.74026664541157,32.25528760323506,24017.639743398413 -118.73504907560417,32.25604083498674,23782.5307800865 -118.7299776607565,32.25674044967609,23551.00858755306 -118.72504644749986,32.257404087535065,23323.781013324573 -118.72025518364245,32.25804674962248,23100.895829965673 -118.71560540815341,32.25868291016752,22882.0108084457 -118.71109596118987,32.25932546115056,22666.6432813504 -118.70672720916448,32.25998058505225,22454.23265999912 -118.7025011333941,32.260651863153775,22244.140494995518 -118.69841743039672,32.2613447654531,22035.71347730036 -118.69447518512473,32.26206198979298,21828.44103379793 -118.6906745313128,32.26280213981179,21621.948334374683 -118.68701497835448,32.263565560658236,21415.782512429185 -118.68349422485795,32.264353357754956,21209.436617055562 -118.68010910030486,32.26516267259503,21002.61289727826 -118.67685665327934,32.2659893943896,20795.105353499555 -118.67373445132148,32.26683199651501,20586.562203302186 -118.67073956947709,32.26768960134833,20376.66893914572 -118.66786906184007,32.268559041062076,20165.399535005105 -118.66512101526484,32.26943709125524,19952.779350605135 -118.66249419814702,32.27032240652539,19738.6428854777 -118.65998672538848,32.27121327753464,19522.90118696457 -118.65759602697008,32.27210628476386,19305.732683951188 -118.65531955730532,32.27299884904013,19087.220279772366 -118.65315550272487,32.273890049782324,18867.276802008553 -118.65110174473818,32.274778220898405,18646.04565077463 -118.64915472466004,32.275660830474784,18423.832961696968 -118.64731132481532,32.276536139905524,18200.71787650059 -118.6455690525701,32.27740398090903,17976.65822366065 -118.64392221893539,32.27826502377281,17752.10735452853 -118.64236484975763,32.27911892692771,17527.570305047822 -118.6408898948207,32.27996643749817,17303.458021071703 -118.63948591129153,32.280809115730214,17080.20413707264 -118.63813986193495,32.28164630719083,16858.194959933513 -118.63684092255636,32.28247489092239,16637.600242145072 -118.63558159371766,32.283292570636156,16418.41151970324 -118.63435686119382,32.284097779936815,16200.700495926341 -118.63316138421288,32.284887553195176,15984.509040906278 -118.6319903765231,32.285658733429976,15769.770785277484 -118.6308405629214,32.28641007928419,15556.436160130419 -118.62970964554364,32.28714036781987,15344.523775572641 -118.62859649584638,32.287846976336695,15134.009006491648 -118.62750003847509,32.2885280054526,14924.859074511234 -118.62641870366963,32.28918350256417,14717.079548466381 -118.62535215311621,32.28981230997976,14510.683425228686 -118.62430101509185,32.290412362305176,14305.647192684935 -118.62326424938442,32.290983853065846,14101.97507131553 -118.62224091427711,32.29152728439442,13899.730297094116 -118.6212322851411,32.29204176617548,13698.918454017316 -118.62023909984754,32.29252721514541,13499.551538471113 -118.61926004131166,32.292984637443375,13301.691062550299 -118.61829579829669,32.29341383826676,13105.36378767303 -118.6173486923349,32.29381436170036,12910.591886690265 -118.61641843960547,32.29418696360405,12717.43715569591 -118.6155046386915,32.2945322012659,12525.94146412155 -118.6146097244964,32.29485037256333,12336.126566220843 -118.61373409720952,32.29514278892318,12148.03046455251 -118.61287600311454,32.295410274049395,11961.67104776652 -118.61203658760468,32.29565305391444,11777.026000382795 -118.61121709920258,32.295872661009454,11594.107152419976 -118.61041588784266,32.29607029850216,11412.925985391323 -118.60963288894965,32.29624578800678,11233.427111875462 -118.60886950920408,32.29640076993677,11055.615400961067 -118.60812475923771,32.29653744681516,10879.52566385881 -118.60739824309559,32.296655711089464,10705.109875744996 -118.60669150119077,32.29675607551602,10532.339112264859 -118.60600434031815,32.29684119107345,10361.254259835623 -118.60533583310377,32.29691183699104,10191.840944443058 -118.6046867644582,32.29696764538613,10024.036423244816 -118.60405693840349,32.297010530737175,9857.857887236962 -118.6034454056877,32.29704213567714,9693.309585011059 -118.60285316604424,32.297061868847564,9530.32222359762 -118.60228044438827,32.29707054114713,9368.879778250826 -118.60172569605825,32.29707024599227,9208.997669536986 -118.60118919440018,32.297060669925266,9050.597191489478 -118.60067161464437,32.29704139357415,8893.613976847886 -118.60017119572339,32.29701415393251,8738.058562831126 -118.59968710422822,32.29697967363407,8583.895355595228 -118.59922063817257,32.29693687408593,8431.055700730187 -118.59877155374903,32.2968862970537,8279.5213362706 -118.59833837362322,32.29682978875183,8129.310162741961 -118.59792192394593,32.29676693770041,7980.35748218798 -118.59752271896463,32.296696974956376,7832.623735904378 -118.59713858261543,32.296621141223284,7686.13309674305 -118.59676981963935,32.296540390966626,7540.866714656191 -118.5964185284949,32.296453339542964,7396.732507010494 -118.5960820251631,32.29636015106469,7253.668378210134 -118.59575880788566,32.296263333765474,7112.263976511826 -118.59545907394502,32.296175909747284,6979.666148446587 -118.5951834628811,32.29610345383826,6857.324677472616 -118.59492751546264,32.2960440112292,6742.704453107774 -118.59468801471621,32.29599605084077,6634.0108392635275 -118.59446255763538,32.29595834825127,6529.934056230384 -118.59424930540905,32.2959299002817,6429.498951805304 -118.59404680850795,32.29590987164143,6331.9679526584805 -118.59385385977095,32.29589763241071,6236.828927092553 -118.59366978655783,32.29589475669364,6145.0612126472015 -118.59349336347333,32.29590123409444,6056.5142991814355 -118.59332338882149,32.295916055703586,5970.471161327562 -118.59315897213153,32.29593832405345,5886.397296889924 -118.59299939721788,32.29596725283008,5803.890932817574 -118.59284406479614,32.296002157329,5722.6482432428675 -118.59269241093932,32.29604247728064,5642.438597604651 -118.59254391341679,32.296087783725895,5563.147461486492 -118.5923976398486,32.29613950538412,5486.720795774044 -118.59225270097477,32.296197595765776,5413.315591477311 -118.59210862286415,32.29626109488526,5342.136850507146 -118.59196510047215,32.29632919566747,5272.625464662121 -118.59182190993386,32.29640121787638,5204.382807651716 -118.59167887428168,32.29647658518353,5137.12166104531 -118.59153584421355,32.29655477871935,5070.6334738904 -118.59139269233904,32.29663531625337,5004.766199494808 -118.59124931739302,32.296717766397265,4939.408777344506 -118.59110563714538,32.29680174245882,4874.480034533118 -118.59096159994067,32.29688691824608,4809.92068773603 -118.59081724889529,32.29697312416331,4745.68738725004 -118.59067267191205,32.29706025449133,4681.7480384455985 -118.59052795270506,32.29714821195592,4618.078661218601 -118.5903831791544,32.29723690699252,4554.66125615493 -118.59023842994796,32.29732624739629,4491.482196223258 -118.59009376253991,32.29741611728009,4428.531052994267 -118.58994922686432,32.29750640478239,4365.800165162644 -118.5898048751751,32.29759700801088,4303.283792669959 -118.58966075651838,32.29768783423871,4240.977365051344 -118.58951688432887,32.297778799813734,4178.877211818536 -118.58937319340535,32.29786983031583,4116.980362729273 -118.5892296168281,32.29796085857208,4055.2842642074993 -118.58908608975415,32.2980518238897,3993.786653910594 -118.58894255901504,32.29814267139085,3932.4855066909013 -118.58879901410438,32.298233351247234,3871.3792754499623 -118.58865552470624,32.29832381781852,3810.4666277946494 -118.58851216246137,32.29841402972269,3749.746217796885 -118.58836900048726,32.298503949529476,3689.216694600002 -118.58822610301024,32.29859354323885,3628.876702110808 -118.58808355722579,32.29868275191253,3568.7248152183247 -118.58794148439102,32.298771470686056,3508.7595459796025 -118.5878000039443,32.29885959951936,3448.979492917933 -118.58765922479492,32.298947048401196,3389.3834451765288 -118.58751925003489,32.299033736357174,3329.9703843199654 -118.58738019235133,32.29911957085637,3270.7392509376396 -118.58724220937773,32.29920442155683,3211.6889706828156 -118.58710545155444,32.29928816457773,3152.818466543815 -118.58697005757193,32.299370688832816,3094.1266379438753 -118.58683615190736,32.29945189482487,3035.6123500894028 -118.58670382927198,32.29953175819837,2977.274315681906 -118.58657308797603,32.29961051527852,2919.111019761691 -118.58644390545771,32.29968844343593,2861.1214852342514 -118.58631625725877,32.29976579275257,2803.30500088814 -118.58619012099456,32.29984278860722,2745.6608845175965 -118.58606548034913,32.29991961970508,2688.1883815560004 -118.58594239284673,32.2999963265463,2630.8862934951644 -118.58582094521716,32.300072877750274,2573.7532420370694 -118.58570121771575,32.30014924476098,2516.7879090278166 -118.58558328362525,32.300225402218395,2459.9890212720543 -118.58546720831191,32.30030132777927,2403.3553045494386 -118.58535311652125,32.30037700784907,2346.885605724213 -118.58524120107467,32.30045243868606,2290.578989325797 -118.58513164941289,32.30052761803392,2234.434474048506 -118.58502462717203,32.30060254447861,2178.45101908339 -118.58492028826987,32.300677217241656,2122.627533551798 -118.5848187658332,32.30075162875589,2066.962841329173 -118.58472016679139,32.30082574128723,2011.45557659788 -118.58462458075587,32.30089951294174,1956.1043946563727 -118.5845320848596,32.30097290645502,1900.9077540809799 -118.58444274653732,32.301045888687106,1845.8637212977897 -118.5843566211249,32.30111842908362,1790.9705371910545 -118.5842736580293,32.30119047126868,1736.2261239135055 -118.58419370155823,32.30126195967168,1681.4273491720433 -118.5841155673146,32.3013316703061,1622.2866611695558 -118.58403893554947,32.30139440873571,1557.1136327569652 -118.58396473594877,32.30144432808308,1489.6149935225092 -118.58389434038935,32.301485805727424,1429.358648440713 -118.58382764659348,32.30152660488815,1379.4295420032074 -118.58376369883138,32.30156876040487,1336.2023337760568 -118.5837017997942,32.30161185565899,1296.4292095091707 -118.583641576146,32.30165545258509,1258.5419623101413 -118.58358280104935,32.30169916868811,1221.726437211252 -118.58352532313191,32.30174268422474,1185.5458048206535 -118.58346911470781,32.30178654427303,1151.5977284057817 -118.58341410173833,32.3018319207839,1122.098798961006 -118.58335998271147,32.3018787257513,1096.2450783791598 -118.58330651973469,32.30192649931881,1072.9476928536806 -118.5832535526427,32.30197478743966,1051.4333471779262 -118.5832009789714,32.30202322917959,1031.2122271881733 -118.58314872559993,32.30207154605219,1011.8518945290293 -118.58309674823468,32.302119507335945,992.8468863751731 -118.58304503353577,32.30216707206155,975.3398446085397 -118.58299356195664,32.302214504732724,962.1688263608536 -118.58294226294316,32.30226181392514,952.3339166916203 -118.58289108584538,32.302308901307676,944.0652573284061 -118.58284000240732,32.30235570467928,936.033955005541 -118.58278900953775,32.30240219596296,928.0256089829901 -118.58273810593175,32.302448365596696,920.0220365182504 -118.58268728923741,32.30249421071113,912.0216596853512 -118.58263656003206,32.30253973053734,904.0243360489394 -118.58258591826754,32.302584920903435,896.0300535140076 -118.5825353710758,32.302629752600346,888.038805084586 -118.58248492060295,32.30267420613062,880.0505811395078 -118.58243456907437,32.30271827573356,872.0653806892926 -118.582384314942,32.30276195978575,864.0832046227298 -118.58233415948189,32.30280525792614,856.1040474571826 -118.58228410190378,32.30284817016578,848.1279036774496 -118.5822341436203,32.3028906966183,840.1547672823925 -118.58218428367263,32.302932837427534,832.1846356120252 -118.58213452396905,32.30297459274613,824.2175051766707 -118.58208486142638,32.30301596275744,816.2533722882445 -118.58203529791064,32.303056947600545,808.2922346734788 -118.5819858323116,32.303097547430674,800.3340898988718 -118.58193646598573,32.30313776237373,792.3789354960592 -118.58188719646222,32.303177592559486,784.4267734661436 -118.58183802449281,32.30321703807375,776.4776069800484 -118.58178894896506,32.30325609905403,768.5314315742481 -118.58173997144047,32.30329477569121,760.5882374719274 -118.58169109113115,32.30333306815461,752.6480193428295 -118.58164231222113,32.30337097826285,744.710773299258 -118.58159366226454,32.30340852427402,736.7764960996534 -118.58154516533838,32.30344572104793,728.8451860546136 -118.58149682803906,32.30348257320538,720.9168398091449 -118.58144865387922,32.30351908218431,712.991455005814 -118.5814006409015,32.30355524851549,705.0690291391602 -118.58135279217828,32.30359107242132,697.1495596117411 -118.58130510520257,32.30362655407384,689.2330433143682 -118.58125758136674,32.3036616936034,681.3194782225856 -118.58121021942094,32.30369649112048,673.4088646111312 -118.58116301980635,32.30373094669319,665.5012058169306 -118.58111598076385,32.303765060371106,657.5965074503623 -118.58106910336807,32.30379883216704,649.6947759932392 -118.58102238402537,32.30383226215495,641.7960125161757 -118.58097582448474,32.30386535043027,633.900215014529 -118.58092942364473,32.303898097120666,626.00738024906 -118.58088318192819,32.30393050235241,618.117505904547 -118.58083709975725,32.30396256625048,610.2305887596543 -118.58079117606198,32.30399428894334,602.3466265944223 -118.5807454102274,32.30402567167341,594.465615871525 -118.58069972690706,32.30405675490772,586.5875458675528 -118.58065403046345,32.304087592275,578.7124141400552 -118.58060828871305,32.30411820168365,570.840216431922 -118.58056249306892,32.30414858839944,562.9709493786125 -118.58051663954305,32.30417875402962,555.1046096233604 -118.58047072878603,32.30420869907673,547.2411952120895 -118.58042475956879,32.30423842374849,539.3807037482696 -118.58037873265229,32.30426792814143,531.5231349807872 -118.58033264669771,32.3042972123137,523.6684893228243 -118.58028650272576,32.30432627631108,515.8167681288332 -118.58024029891544,32.30435512028448,507.9679604532825 -118.58019403862755,32.30438374432967,500.1220616317994 -118.580147719503,32.30441214855006,492.27906881373866 -118.58010134408403,32.30444033301839,484.43897930767497 -118.58005490892856,32.3044682978361,476.60179069293173 -118.58000841754207,32.3044960430651,468.7675003283447 -118.5799618674522,32.304523568787666,460.9363104824458 -118.57991525951564,32.30455087504262,453.10860374468336 -118.57986859184317,32.304577961847635,445.28444616977305 -118.57982197178279,32.30460473455639,437.4473026003126 -118.57977544688717,32.30463115146301,429.59934039078996 -118.5797289272985,32.30465730577302,421.75395824654123 -118.57968238700244,32.30468322544846,413.91229129457463 -118.57963582068504,32.30470891830251,406.07442007378575 -118.57958922353083,32.304734386683805,398.24035682269346 -118.57954259788411,32.30475963143801,390.41008120423794 -118.5794959388615,32.30478465271571,382.58361063712744 -118.57944925251314,32.30480945082221,374.760923141477 -118.5794025333594,32.30483402570115,366.94203966745454 -118.5793557852609,32.304858377584296,359.1269301954173 -118.57930900601093,32.304882506624764,351.31560262336706 -118.57926219626194,32.3049064126931,343.50805923608226 -118.5792153569065,32.304930096127094,335.7042997249676 -118.5791684862817,32.30495355669979,327.9043156278985 -118.57912158709311,32.30497679512866,320.1080836062302 -118.57907465525136,32.30499981084859,312.31563407735365 -118.57902769475061,32.30502260459613,304.5269340704574 -118.57898070218943,32.305045175947235,296.74199583091826 -118.5789336881165,32.30506752776399,288.960819107304 -118.5788867707864,32.305089703689774,281.183385583311 -118.57884007570274,32.30511174809017,273.40968584050813 -118.57879363941734,32.30513367452389,265.6397038408604 -118.57874747152493,32.30515548676669,257.8734618115141 -118.5787015766486,32.305177185989685,250.1109427694748 -118.57865595384587,32.30519877243219,242.35216811435495 -118.57861060515421,32.30522024618573,234.59711688961167 -118.57856552862708,32.305241607414075,226.84580105424038 -118.57852072336368,32.30526285586306,219.0982093663688 -118.57847619275947,32.30528399211353,211.35431035689516 -118.5784319318569,32.30530501559504,203.6140991305561 -118.57838794669675,32.30532592703007,195.87755876233427 -118.57834423011539,32.30534672581384,188.14469625100264 -118.5783007884479,32.305367412607744,180.41550952447432 -118.57825761618037,32.30538798691574,172.6899866555195 -118.57821471742014,32.305408449454326,164.96813602452346 -118.57817209023051,32.30542879987252,157.24995265598903 -118.57812973348075,32.305449038294675,149.53543524877426 -118.57808764884135,32.30546916475733,141.8245620644984 -118.57804580763604,32.30548917409192,134.1173491706066 -118.57800407494395,32.305509040034295,126.41378203691417 -118.57796237116969,32.30552874771342,118.713869520036 -118.57792067817658,32.30554829338818,111.0176009254571 -118.57787898766856,32.30556767559787,103.32466213655566 -118.57783729865523,32.30558689436948,95.63293919085974 -118.57779561143758,32.30560594958495,87.94162535576837 -118.57775392413669,32.30562484120171,80.25069117597899 -118.57771224045388,32.305643569189364,72.56013040268819 -118.57767056104868,32.30566213352503,64.86993980294585 -118.57762888988881,32.30568053446147,57.18010633653966 -118.57758722446295,32.305698771943334,49.49063676696817 -118.57754556815783,32.30571684591641,41.80153686034228 -118.57750391881657,32.305734756498495,34.112796836662866 -118.5774622771711,32.30575250358187,26.424404426982896 -118.57742064414967,32.30577008741945,18.73636746622211 -118.57737857662798,32.30578747689657,11.048915701230973 -118.57733464590495,32.3058045729604,3.3625891061644997 -118.57728822114515,32.30582133154906,-4.322905954812772 -118.57724039117127,32.30583733509728,-11.81575122289865</coordinates>
            </LineString>
        </Placemark>
        <Folder id="4">
            <name>Velocity Labels</name>
        </Folder>
        <Folder id="5">
            <Style id="8">
                <LabelStyle id="9">
                    <color>ff00ffff</color>
                    <colorMode>normal</colorMode>
                    <scale>1</scale>
                </LabelStyle>
            </Style>
            <Style id="12">
                <LabelStyle id="13">
                    <color>ff00ffff</color>
                    <colorMode>normal</colorMode>
                    <scale>1</scale>
                </LabelStyle>
            </Style>
            <Style id="16">
                <LabelStyle id="17">
                    <color>ff00ffff</color>
                    <colorMode>normal</colorMode>
                    <scale>1</scale>
                </LabelStyle>
            </Style>
            <name>High-Res Waypoints</name>
            <Placemark id="7">
                <name>ALT: 21522ft | 1mph | 72F</name>
                <styleUrl>#8</styleUrl>
                <Point id="6">
                    <coordinates>-118.5960820251631,32.29636015106469,7253.668378210134</coordinates>
                    <altitudeMode>absolute</altitudeMode>
                </Point>
            </Placemark>
            <Placemark id="11">
                <name>ALT: 21376ft | 0mph | 72F</name>
                <styleUrl>#12</styleUrl>
                <Point id="10">
                    <coordinates>-118.5842736580293,32.30119047126868,1736.2261239135055</coordinates>
                    <altitudeMode>absolute</altitudeMode>
                </Point>
            </Placemark>
            <Placemark id="15">
                <name>ALT: 20499ft | 0mph | 72F</name>
                <styleUrl>#16</styleUrl>
                <Point id="14">
                    <coordinates>-118.57804580763604,32.30548917409192,134.1173491706066</coordinates>
                    <altitudeMode>absolute</altitudeMode>
                </Point>
            </Placemark>
        </Folder>
    </Document>
</kml>
